{"spkid": "50710251", "covariance": {"epoch": "2457382.5", "labels": ["e", "q", "tp", "node", "peri", "i"], "elements": [{"label": "e", "name": "e", "sigma": 6.26051245688702e-08, "title": "eccentricity", "value": ".2880946151799299", "units": null}, {"value": ".9526540979428547", "title": "perihelion distance", "units": "au", "sigma": 7.87149845471094e-08, "name": "q", "label": "q"}, {"label": "tp", "name": "tp", "sigma": 2.95754221571525e-05, "title": "time of perihelion passage", "value": "2457197.045236573222", "units": "TDB"}, {"label": "node", "sigma": 1.57623454496197e-05, "name": "om", "units": "deg", "title": "longitude of the ascending node", "value": "124.8398856065112"}, {"label": "peri", "title": "argument of perihelion", "value": "132.4607662525213", "units": "deg", "name": "w", "sigma": 2.34570449212489e-05}, {"label": "i", "units": "deg", "title": "inclination", "value": "13.03910906386164", "sigma": 9.11631814703067e-06, "name": "i"}], "data": [["3.919401622283758E-15", "-4.888399204906059E-15", "2.501310387712083E-13", "-1.293365367136864E-13", "6.269325736365303E-13", "2.969224943920783E-15"], ["-4.888399204906059E-15", "6.196048792251678E-15", "-1.962668708293814E-13", "1.686907129149543E-13", "-7.256909685349272E-13", "1.722868920561534E-14"], ["2.501310387712083E-13", "-1.962668708293814E-13", "8.747055957737865E-10", "3.078175114365477E-11", "4.619035859866087E-10", "1.588157286797009E-10"], ["-1.293365367136864E-13", "1.686907129149543E-13", "3.078175114365477E-11", "2.484515340731484E-10", "-2.379709314969486E-10", "4.735970054069754E-11"], ["6.269325736365303E-13", "-7.256909685349272E-13", "4.619035859866087E-10", "-2.379709314969486E-10", "5.502329564374905E-10", "3.475713740154036E-11"], ["2.969224943920783E-15", "1.722868920561534E-14", "1.588157286797009E-10", "4.735970054069754E-11", "3.475713740154036E-11", "8.31072565578808E-11"]]}, "elements": [{"label": "e", "value": ".2881884711404016", "title": "eccentricity", "units": null, "sigma": "6.2726E-8", "name": "e"}, {"label": "a", "value": "1.33826716056535", "title": "semi-major axis", "units": "au", "name": "a", "sigma": "1.6314E-8"}, {"label": "q", "name": "q", "sigma": "7.8779E-8", "units": "au", "value": ".9525939935846156", "title": "perihelion distance"}, {"label": "i", "units": "deg", "value": "13.04289057016354", "title": "inclination; angle with respect to x-y ecliptic plane", "sigma": "9.1177E-6", "name": "i"}, {"sigma": "1.5757E-5", "name": "om", "title": "longitude of the ascending node", "value": "124.7864579645831", "units": "deg", "label": "node"}, {"label": "peri", "title": "argument of perihelion", "value": "132.5781913230791", "units": "deg", "sigma": "2.3437E-5", "name": "w"}, {"name": "ma", "sigma": "5.6878E-5", "units": "deg", "title": "mean anomaly", "value": "28.75425905046421", "label": "M"}, {"label": "tp", "value": "2461155.333926317172", "title": "time of perihelion passage", "units": "TDB", "name": "tp", "sigma": "8.8554E-5"}, {"value": "565.4740223798485", "title": "sidereal orbital period", "units": "d", "sigma": "1.034E-5", "name": "per", "label": "period"}, {"name": "n", "sigma": "1.1642E-8", "title": "mean motion", "value": ".6366340198704574", "units": "deg/d", "label": "n"}, {"title": "aphelion distance", "value": "1.723940327546085", "units": "au", "name": "ad", "sigma": "2.1016E-8", "label": "Q"}], "epoch": "2461200.5"}